NOAA 15                 
1 25338U 98030A   22211.56755627  .00000103  00000+0  61251-4 0  9994
2 25338  98.6418 240.5346 0010676 165.7852 194.3631 14.26155992259161
DMSP 5D-3 F15 (USA 147) 
1 25991U 99067A   22211.56413049  .00000037  00000+0  41491-4 0  9999
2 25991  99.0541 203.8799 0011161  68.6634   6.7134 14.16557143169876
METEOSAT-8 (MSG-1)      
1 27509U 02040B   22211.13355278  .00000136  00000+0  00000+0 0  9999
2 27509   8.1130  50.4205 0000063 195.5828 151.2502  1.00276927 73034
DMSP 5D-3 F16 (USA 172) 
1 28054U 03048A   22211.56407519 -.00000047  00000+0 -10671-5 0  9991
2 28054  98.9908 202.6000 0007049 187.4525 268.5283 14.13677032969121
NOAA 18                 
1 28654U 05018A   22211.47920751  .00000128  00000+0  93193-4 0  9991
2 28654  98.9474 281.8778 0013890 205.9028 154.1450 14.12758887886144
METEOSAT-9 (MSG-2)      
1 28912U 05049B   22211.19146572  .00000129  00000+0  00000+0 0  9993
2 28912   6.1115  66.0297 0000727 320.4042  35.9378  1.00270694 60818
EWS-G1 (GOES 13)        
1 29155U 06018A   22211.49620587  .00000041  00000+0  00000+0 0  9999
2 29155   0.7009  96.7739 0004766  93.6480 357.5458  1.00274408 29165
DMSP 5D-3 F17 (USA 191) 
1 29522U 06050A   22211.52152482 -.00000022  00000+0  11441-4 0  9997
2 29522  98.7660 225.7683 0010671 134.2172 225.9879 14.14104252811990
FENGYUN 3A              
1 32958U 08026A   22211.13578140  .00000021  00000+0  30100-4 0  9990
2 32958  98.5049 172.0295 0007547 259.0124 101.0203 14.18730411734388
FENGYUN 2E              
1 33463U 08066A   22211.57479843 -.00000204  00000+0  00000+0 0  9999
2 33463   5.9988  65.0658 0002932  18.8508 157.9612  1.00272153 49876
NOAA 19                 
1 33591U 09005A   22211.55622953  .00000093  00000+0  75063-4 0  9996
2 33591  99.1453 246.5929 0014851  69.0387 291.2371 14.12593509694275
GOES 14                 
1 35491U 09033A   22211.46315692 -.00000089  00000+0  00000+0 0  9997
2 35491   0.4154  94.8698 0013979 116.7880 158.5675  1.00272965 47899
METEOR-M 1              
1 35865U 09049A   22211.16667938  .00000009  00000+0  22916-4 0  9995
2 35865  98.5307 180.2650 0003479  97.2520 262.9054 14.22347116667762
DMSP 5D-3 F18 (USA 210) 
1 35951U 09057A   22211.51257930  .00000144  00000+0  99336-4 0  9996
2 35951  98.7244 189.8426 0010504 330.5125  29.5454 14.13532645659212
GOES 15                 
1 36411U 10008A   22211.53018687  .00000056  00000+0  00000+0 0  9999
2 36411   0.3875 100.1714 0002344  45.4844 225.2818  1.00280233 45451
COMS 1                  
1 36744U 10032A   22211.50952038 -.00000342  00000+0  00000+0 0  9998
2 36744   1.1809  92.3483 0000730  18.8851 148.4467  1.00272932 36879
FENGYUN 3B              
1 37214U 10059A   22211.43691468 -.00000017  00000+0  15517-4 0  9992
2 37214  99.0921 218.1731 0021437 232.4207 127.5024 14.14260790607030
SUOMI NPP               
1 37849U 11061A   22211.57032656 -.00000012  00000+0  14890-4 0  9991
2 37849  98.7331 149.5270 0001191  89.9129  83.7236 14.19535702557319
FENGYUN 2F              
1 38049U 12002A   22208.56021712 -.00000358  00000+0  00000+0 0  9992
2 38049   3.8862  79.4073 0000124  84.5397  94.6597  1.00284488 38642
METEOSAT-10 (MSG-3)     
1 38552U 12035B   22211.27063449  .00000063  00000+0  00000+0 0  9994
2 38552   1.5832  43.5626 0000745  21.1376 350.0155  1.00265966 37000
METOP-B                 
1 38771U 12049A   22211.50401939  .00000038  00000+0  37133-4 0  9992
2 38771  98.6932 270.6143 0000522  70.9375  46.5354 14.21498599511857
FENGYUN 3C              
1 39260U 13052A   22211.37583662  .00000049  00000+0  45815-4 0  9998
2 39260  98.4522 237.3129 0011683 145.8207 214.3725 14.15934189457998
METEOR-M 2              
1 40069U 14037A   22211.42472794  .00000016  00000+0  26381-4 0  9991
2 40069  98.4308 227.2671 0005324 186.1657 173.9464 14.20714540417967
HIMAWARI-8              
1 40267U 14060A   22211.22504580 -.00000274  00000+0  00000+0 0  9996
2 40267   0.0501 242.6396 0000560 221.7107  65.1341  1.00270936 28547
FENGYUN 2G              
1 40367U 14090A   22211.58974258 -.00000302  00000+0  00000+0 0  9994
2 40367   2.0397  89.0878 0000872 276.0842 255.1046  1.00274798 27784
METEOSAT-11 (MSG-4)     
1 40732U 15034A   22211.26862889 -.00000002  00000+0  00000+0 0  9997
2 40732   0.3738  65.5531 0001527  27.8311 311.2746  1.00264648 25801
ELEKTRO-L 2             
1 41105U 15074A   22211.27966225 -.00000115  00000+0  00000+0 0  9991
2 41105   3.0972  87.6768 0002340  85.7732 220.6088  1.00272428 24296
HIMAWARI-9              
1 41836U 16064A   22211.51204919 -.00000272  00000+0  00000+0 0  9998
2 41836   0.0148  15.3804 0000615 140.7031 117.1437  1.00271971 20976
GOES 16                 
1 41866U 16071A   22211.46899935 -.00000245  00000+0  00000+0 0  9991
2 41866   0.0589 253.0633 0000509 296.6564 211.9913  1.00271089 20896
FENGYUN 4A              
1 41882U 16077A   22211.60674438 -.00000328  00000+0  00000+0 0  9992
2 41882   0.0809  75.7917 0002623  49.8316 145.6069  1.00276626 20768
CYGFM05                 
1 41884U 16078A   22211.56475349  .00001202  00000+0  61828-4 0  9991
2 41884  34.9562 293.2973 0014425 117.8451 242.3724 15.16523153311331
CYGFM04                 
1 41885U 16078B   22211.53580610  .00001209  00000+0  61214-4 0  9993
2 41885  34.9490 282.4686 0013009 135.7055 224.4699 15.17057684311377
CYGFM02                 
1 41886U 16078C   22211.52549047  .00001289  00000+0  65084-4 0  9999
2 41886  34.9583 284.7545 0013653 129.2406 230.9520 15.17096271311452
CYGFM01                 
1 41887U 16078D   22211.57219032  .00001198  00000+0  61918-4 0  9994
2 41887  34.9530 295.7119 0014853 117.1437 243.0791 15.16329818311288
CYGFM08                 
1 41888U 16078E   22211.54347420  .00001251  00000+0  63734-4 0  9993
2 41888  34.9497 288.3399 0014136 129.4632 230.7332 15.16800989311418
CYGFM06                 
1 41889U 16078F   22211.57118759  .00001258  00000+0  63575-4 0  9998
2 41889  34.9578 283.1430 0012590 129.6818 230.5006 15.17111433311403
CYGFM07                 
1 41890U 16078G   22211.55745627  .00001191  00000+0  60409-4 0  9997
2 41890  34.9516 282.0730 0012463 134.3337 225.8398 15.17043479311388
CYGFM03                 
1 41891U 16078H   22211.55629532  .00001199  00000+0  60826-4 0  9995
2 41891  34.9548 282.5659 0011978 132.2545 227.9184 15.17036674311371
FENGYUN 3D              
1 43010U 17072A   22211.42850846  .00000022  00000+0  31591-4 0  9996
2 43010  98.8172 155.8189 0002673 117.7101 242.4338 14.19215533243861
NOAA 20                 
1 43013U 17073A   22211.57118255  .00000012  00000+0  26318-4 0  9997
2 43013  98.7170 149.4541 0000866  66.7677 293.3590 14.19563552243340
GOES 17                 
1 43226U 18022A   22211.52818126  .00000101  00000+0  00000+0 0  9991
2 43226   0.0935 262.2791 0000172 223.1245 235.5731  1.00271467 16207
FENGYUN 2H              
1 43491U 18050A   22211.49984116 -.00000127  00000+0  00000+0 0  9994
2 43491   1.2532  96.3715 0004165  42.1992  68.8182  1.00270381 15225
METOP-C                 
1 43689U 18087A   22211.51803638  .00000029  00000+0  33205-4 0  9993
2 43689  98.6814 270.7957 0001514 276.1385  83.9620 14.21498664193420
GEO-KOMPSAT-2A          
1 43823U 18100A   22211.50952038 -.00000341  00000+0  00000+0 0  9997
2 43823   0.0178 145.2734 0001785 322.0966 152.4322  1.00272340 13409
METEOR-M2 2             
1 44387U 19038A   22211.51377989 -.00000006  00000+0  16588-4 0  9992
2 44387  98.7251 171.9531 0002012 120.5243 239.6128 14.23715788159539
FENGYUN 3E              
1 49008U 21062A   22211.43229326 -.00000015  00000+0  13558-4 0  9993
2 49008  98.7117 212.7132 0001212 189.0476 171.0682 14.19735297 55413
GOES 18                 
1 51850U 22021A   22210.66746831  .00000099  00000+0  00000+0 0  9990
2 51850   0.0493 100.5495 0002647 113.3037 196.7407  1.00271876  1555
